0 DELTA 1 DEB
1 07141U 73086DF  13282.49153772  .00000211  00000-0  19474-2 0  1714
2 07141 102.1526 256.5688 0021762 212.5587 271.2208 12.38883698800972
0 DELTA 1 DEB
1 07141U 73086DF  13286.91068251  .00000203  00000-0  18824-2 0  1733
2 07141 102.1534 260.9692 0021642 203.0464 181.9029 12.38885820801520
0 DELTA 1 DEB
1 07141U 73086DF  13289.18144947  .00000110  00000-0  11762-2 0  1744
2 07141 102.1541 263.2300 0021614 198.1947 230.1621 12.38885548801802
0 DELTA 1 DEB
1 07141U 73086DF  13291.53541894  .00000179  00000-0  17003-2 0  1758
2 07141 102.1548 265.5739 0021592 192.9730 289.7390 12.38888069802093
0 DELTA 1 DEB
1 07141U 73086DF  13293.85669443  .00000171  00000-0  16398-2 0  1765
2 07141 102.1551 267.8854 0021601 187.9366 203.3777 12.38887826802383
0 DELTA 1 DEB
1 07141U 73086DF  13295.88114279  .00000163  00000-0  15854-2 0  1770
2 07141 102.1551 269.9015 0021629 183.5325 233.0867 12.38888730802635
